H1 CPF 01  gfz 2022 04 01 00  5911 tandemx   
H2 1003001  6202 36605    2022 04 01 00 59 42 2022 04 06 00 00 42   120 1 1  0 0 0
H9
10 0 59673   9342.000000  0    3192824.539   2873074.183  -5393701.479
10 0 59673   9462.000000  0    2794215.896   2218093.263  -5900571.589
10 0 59673   9582.000000  0    2335411.494   1532145.501  -6304373.868
10 0 59673   9702.000000  0    1823971.915    828136.420  -6598142.141
10 0 59673   9822.000000  0    1268577.785    119120.347  -6776817.112
10 0 59673   9942.000000  0     678883.227   -581937.070  -6837325.895
10 0 59673  10062.000000  0      65349.328  -1262391.345  -6778628.264
10 0 59673  10182.000000  0    -560936.634  -1910140.566  -6601731.160
10 0 59673  10302.000000  0   -1188456.063  -2513834.830  -6309674.576
10 0 59673  10422.000000  0   -1805466.086  -3063072.502  -5907485.267
10 0 59673  10542.000000  0   -2400214.023  -3548578.005  -5402098.896
10 0 59673  10662.000000  0   -2961158.084  -3962360.532  -4802252.916
10 0 59673  10782.000000  0   -3477191.588  -4297851.014  -4118347.104
10 0 59673  10902.000000  0   -3937864.166  -4550012.542  -3362272.978
10 0 59673  11022.000000  0   -4333596.345  -4715422.883  -2547215.218
10 0 59673  11142.000000  0   -4655882.856  -4792326.269  -1687426.169
10 0 59673  11262.000000  0   -4897479.113  -4780652.655   -797977.393
10 0 59673  11382.000000  0   -5052565.882  -4682003.481    105507.378
10 0 59673  11502.000000  0   -5116887.841  -4499603.991   1007133.005
10 0 59673  11622.000000  0   -5087861.301  -4238221.648   1891021.910
10 0 59673  11742.000000  0   -4964647.604  -3904052.448   2741603.238
10 0 59673  11862.000000  0   -4748191.018  -3504578.840   3543895.368
10 0 59673  11982.000000  0   -4441220.549  -3048403.362   4283776.323
10 0 59673  12102.000000  0   -4048214.697  -2545061.252   4948236.686
10 0 59673  12222.000000  0   -3575331.283  -2004818.100   5525607.690
10 0 59673  12342.000000  0   -3030306.046  -1438458.596   6005763.441
10 0 59673  12462.000000  0   -2422320.589   -857069.174   6380295.720
10 0 59673  12582.000000  0   -1761841.505   -271818.122   6642656.214
10 0 59673  12702.000000  0   -1060435.195    306259.617   6788263.415
10 0 59673  12822.000000  0    -330564.103    866468.699   6814576.947
10 0 59673  12942.000000  0     414634.556   1398650.580   6721139.377
10 0 59673  13062.000000  0    1161584.731   1893367.705   6509583.907
10 0 59673  13182.000000  0    1896518.348   2342071.057   6183606.840
10 0 59673  13302.000000  0    2605728.259   2737248.087   5748907.083
10 0 59673  13422.000000  0    3275825.102   3072550.635   5213093.237
10 0 59673  13542.000000  0    3893993.670   3342900.071   4585555.825
10 0 59673  13662.000000  0    4448240.650   3544566.488   3877307.298
10 0 59673  13782.000000  0    4927634.415   3675222.114   3100794.951
10 0 59673  13902.000000  0    5322528.691   3733966.504   2269680.608
10 0 59673  14022.000000  0    5624761.848   3721320.789   1398598.050
10 0 59673  14142.000000  0    5827830.147   3639193.797    502890.027
10 0 59673  14262.000000  0    5927028.841   3490818.731   -401670.282
10 0 59673  14382.000000  0    5919557.043   3280662.297  -1299165.811
10 0 59673  14502.000000  0    5804584.379   3014308.854  -2173824.169
10 0 59673  14622.000000  0    5583277.187   2698323.337  -3010301.358
10 0 59673  14742.000000  0    5258785.533   2340096.352  -3793955.210
10 0 59673  14862.000000  0    4836191.802   1947675.005  -4511103.516
10 0 59673  14982.000000  0    4322419.762   1529583.627  -5149261.010
10 0 59673  15102.000000  0    3726110.517   1094640.284  -5697348.946
10 0 59673  15222.000000  0    3057468.661    651773.399  -6145878.337
10 0 59673  15342.000000  0    2328080.476    209841.357  -6487103.307
10 0 59673  15462.000000  0    1550710.017   -222540.529  -6715142.757
10 0 59673  15582.000000  0     739077.044   -637163.663  -6826072.407
10 0 59673  15702.000000  0     -92383.141  -1026378.074  -6817985.171
10 0 59673  15822.000000  0    -928770.577  -1383229.156  -6691018.727
10 0 59673  15942.000000  0   -1754980.720  -1701578.542  -6447354.272
10 0 59673  16062.000000  0   -2555971.361  -1976208.013  -6091183.121
10 0 59673  16182.000000  0   -3317030.267  -2202903.890  -5628641.742
10 0 59673  16302.000000  0   -4024042.406  -2378522.459  -5067718.118
10 0 59673  16422.000000  0   -4663753.823  -2501034.501  -4418125.593
10 0 59673  16542.000000  0   -5224024.366  -2569547.310  -3691145.365
10 0 59673  16662.000000  0   -5694065.636  -2584304.013  -2899439.879
10 0 59673  16782.000000  0   -6064658.516  -2546659.176  -2056838.006
10 0 59673  16902.000000  0   -6328344.189  -2459031.299  -1178095.848
10 0 59673  17022.000000  0   -6479584.092  -2324832.721   -278636.717
10 0 59673  17142.000000  0   -6514883.484  -2148378.186    625724.500
10 0 59673  17262.000000  0   -6432875.655  -1934773.999   1519067.164
10 0 59673  17382.000000  0   -6234362.711  -1689790.653   2385654.942
10 0 59673  17502.000000  0   -5922311.398  -1419722.404   3210221.806
10 0 59673  17622.000000  0   -5501806.697  -1131237.020   3978248.581
10 0 59673  17742.000000  0   -4979960.906   -831219.508   4676224.947
10 0 59673  17862.000000  0   -4365783.149   -526614.575   5291887.235
10 0 59673  17982.000000  0   -3670015.816   -224271.734   5814432.426
10 0 59673  18102.000000  0   -2904937.772     69204.536   6234705.141
10 0 59673  18222.000000  0   -2084139.448    347595.419   6545352.563
10 0 59673  18342.000000  0   -1222275.777    605195.419   6740946.984
10 0 59673  18462.000000  0    -334801.489    836926.838   6818074.737
10 0 59673  18582.000000  0     562306.316   1038438.273   6775391.333
10 0 59673  18702.000000  0    1452834.796   1206185.784   6613643.378
10 0 59673  18822.000000  0    2320627.519   1337495.646   6335656.270
10 0 59673  18942.000000  0    3149876.997   1430606.952   5946288.217
10 0 59673  19062.000000  0    3925414.852   1484693.947   5452350.683
10 0 59673  19182.000000  0    4632992.171   1499867.539   4862494.200
10 0 59673  19302.000000  0    5259546.654   1477156.854   4187064.497
10 0 59673  19422.000000  0    5793454.273   1418470.252   3437925.729
10 0 59673  19542.000000  0    6224754.016   1326536.853   2628251.876
10 0 59673  19662.000000  0    6545342.688   1204828.269   1772294.886
10 0 59673  19782.000000  0    6749136.291   1057464.524    885129.506
10 0 59673  19902.000000  0    6832191.220    889105.044    -17618.937
10 0 59673  20022.000000  0    6792784.109    704827.700   -920058.230
10 0 59673  20142.000000  0    6631445.106    509998.889  -1806318.789
10 0 59673  20262.000000  0    6350945.690    310137.796  -2660839.991
10 0 59673  20382.000000  0    5956242.827    110778.985  -3468648.953
10 0 59673  20502.000000  0    5454380.365    -82663.249  -4215625.991
10 0 59673  20622.000000  0    4854349.686   -265025.375  -4888750.764
10 0 59673  20742.000000  0    4166915.473   -431516.491  -5476323.095
10 0 59673  20862.000000  0    3404412.927   -577829.459  -5968158.012
10 0 59673  20982.000000  0    2580518.696   -700239.716  -6355752.880
10 0 59673  21102.000000  0    1710000.534   -795688.363  -6632422.416
10 0 59673  21222.000000  0     808453.185   -861849.541  -6793402.684
10 0 59673  21342.000000  0    -107977.918   -897180.879  -6835925.201
10 0 59673  21462.000000  0   -1022880.121   -900955.361  -6759258.410
10 0 59673  21582.000000  0   -1919860.182   -873275.553  -6564719.400
10 0 59673  21702.000000  0   -2782831.753   -815068.998  -6255653.125
10 0 59673  21822.000000  0   -3596296.767   -728065.592  -5837380.292
10 0 59673  21942.000000  0   -4345620.705   -614757.102  -5317117.115
10 0 59673  22062.000000  0   -5017297.697   -478338.846  -4703861.814
10 0 59673  22182.000000  0   -5599198.295   -322635.114  -4008250.646
10 0 59673  22302.000000  0   -6080798.013   -152009.268  -3242384.427
10 0 59673  22422.000000  0   -6453379.356     28740.739  -2419625.020
10 0 59673  22542.000000  0   -6710202.959    214498.230  -1554366.786
10 0 59673  22662.000000  0   -6846643.459    399953.821   -661784.645
10 0 59673  22782.000000  0   -6860283.888    579736.933    242437.825
10 0 59673  22902.000000  0   -6750964.671    748550.633   1142390.389
10 0 59673  23022.000000  0   -6520789.792    901305.867   2022223.701
10 0 59673  23142.000000  0   -6174087.130   1033251.652   2866438.028
10 0 59673  23262.000000  0   -5717322.888   1140097.836   3660165.257
10 0 59673  23382.000000  0   -5158972.787   1218127.059   4389436.977
10 0 59673  23502.000000  0   -4509355.064   1264293.404   5041432.994
10 0 59673  23622.000000  0   -3780429.907   1276305.008   5604706.130
10 0 59673  23742.000000  0   -2985570.729   1252689.447   6069380.626
10 0 59673  23862.000000  0   -2139311.173   1192840.246   6427321.856
10 0 59673  23982.000000  0   -1257072.152   1097044.276   6672273.198
10 0 59673  24102.000000  0    -354876.957    966488.512   6799957.965
10 0 59673  24222.000000  0     550939.979    803246.851   6808148.672
10 0 59673  24342.000000  0    1444027.777    610247.012   6696703.218
10 0 59673  24462.000000  0    2308313.001    391218.446   6467567.266
10 0 59673  24582.000000  0    3128288.275    150621.519   6124743.283
10 0 59673  24702.000000  0    3889292.477   -106441.199   5674225.496
10 0 59673  24822.000000  0    4577776.228   -374330.025   5123900.350
10 0 59673  24942.000000  0    5181548.776   -646987.433   4483414.517
10 0 59673  25062.000000  0    5690001.738   -918069.834   3764010.838
10 0 59673  25182.000000  0    6094305.450  -1181089.169   2978334.426
10 0 59673  25302.000000  0    6387572.189  -1429560.941   2140210.050
10 0 59673  25422.000000  0    6564982.208  -1657154.549   1264395.836
10 0 59673  25542.000000  0    6623869.227  -1857843.410    366318.311
10 0 59673  25662.000000  0    6563763.584  -2026051.659   -538207.518
10 0 59673  25782.000000  0    6386389.431  -2156790.979  -1433266.110
99
